CCSDS_OMM_VERS = 2.0
CREATION_DATE  = 
ORIGINATOR     = 

OBJECT_NAME    = DELTA 2 R/B(1)
OBJECT_ID      = 1990-008B
CENTER_NAME    = EARTH
REF_FRAME      = TEME
TIME_SYSTEM    = UTC
MEAN_ELEMENT_THEORY = SGP/SGP4

EPOCH          = 2025-12-27T11:25:25.610304
MEAN_MOTION    = 15.46482649
ECCENTRICITY   = .0109215
INCLINATION    = 35.6069
RA_OF_ASC_NODE = 285.2884
ARG_OF_PERICENTER = 311.9578
MEAN_ANOMALY   = 47.1890

EPHEMERIS_TYPE = 0
CLASSIFICATION_TYPE = U
NORAD_CAT_ID   = 20453
ELEMENT_SET_NO = 999
REV_AT_EPOCH   = 91491
BSTAR          = .80229662E-3
MEAN_MOTION_DOT = .52182E-3
MEAN_MOTION_DDOT = 0

CCSDS_OMM_VERS = 2.0
CREATION_DATE  = 
ORIGINATOR     = 

OBJECT_NAME    = COSMOS 2058
OBJECT_ID      = 1990-010A
CENTER_NAME    = EARTH
REF_FRAME      = TEME
TIME_SYSTEM    = UTC
MEAN_ELEMENT_THEORY = SGP/SGP4

EPOCH          = 2025-12-27T19:05:00.900384
MEAN_MOTION    = 15.10621677
ECCENTRICITY   = .00097131
INCLINATION    = 82.4705
RA_OF_ASC_NODE = 118.2227
ARG_OF_PERICENTER = 216.8191
MEAN_ANOMALY   = 143.2373

EPHEMERIS_TYPE = 0
CLASSIFICATION_TYPE = U
NORAD_CAT_ID   = 20465
ELEMENT_SET_NO = 999
REV_AT_EPOCH   = 93138
BSTAR          = .34651685E-3
MEAN_MOTION_DOT = .5759E-4
MEAN_MOTION_DDOT = 0

CCSDS_OMM_VERS = 2.0
CREATION_DATE  = 
ORIGINATOR     = 

OBJECT_NAME    = SL-14 R/B
OBJECT_ID      = 1990-010B
CENTER_NAME    = EARTH
REF_FRAME      = TEME
TIME_SYSTEM    = UTC
MEAN_ELEMENT_THEORY = SGP/SGP4

EPOCH          = 2025-12-27T22:07:32.302560
MEAN_MOTION    = 14.83486316
ECCENTRICITY   = .0019954
INCLINATION    = 82.5024
RA_OF_ASC_NODE = 334.7874
ARG_OF_PERICENTER = 171.7964
MEAN_ANOMALY   = 188.3581

EPHEMERIS_TYPE = 0
CLASSIFICATION_TYPE = U
NORAD_CAT_ID   = 20466
ELEMENT_SET_NO = 999
REV_AT_EPOCH   = 91784
BSTAR          = .75778661E-4
MEAN_MOTION_DOT = .649E-5
MEAN_MOTION_DDOT = 0

CCSDS_OMM_VERS = 2.0
CREATION_DATE  = 
ORIGINATOR     = 

OBJECT_NAME    = SL-14 R/B
OBJECT_ID      = 1990-018B
CENTER_NAME    = EARTH
REF_FRAME      = TEME
TIME_SYSTEM    = UTC
MEAN_ELEMENT_THEORY = SGP/SGP4

EPOCH          = 2025-12-27T20:53:43.764288
MEAN_MOTION    = 14.82062909
ECCENTRICITY   = .00156986
INCLINATION    = 82.5220
RA_OF_ASC_NODE = 290.2232
ARG_OF_PERICENTER = 333.5297
MEAN_ANOMALY   = 26.5113

EPHEMERIS_TYPE = 0
CLASSIFICATION_TYPE = U
NORAD_CAT_ID   = 20511
ELEMENT_SET_NO = 999
REV_AT_EPOCH   = 91194
BSTAR          = .76025873E-4
MEAN_MOTION_DOT = .628E-5
MEAN_MOTION_DDOT = 0

CCSDS_OMM_VERS = 2.0
CREATION_DATE  = 
ORIGINATOR     = 

OBJECT_NAME    = HST
OBJECT_ID      = 1990-037B
CENTER_NAME    = EARTH
REF_FRAME      = TEME
TIME_SYSTEM    = UTC
MEAN_ELEMENT_THEORY = SGP/SGP4

EPOCH          = 2025-12-27T19:30:20.873376
MEAN_MOTION    = 15.28239064
ECCENTRICITY   = .00025674
INCLINATION    = 28.4655
RA_OF_ASC_NODE = 169.8780
ARG_OF_PERICENTER = 48.3143
MEAN_ANOMALY   = 311.7671

EPHEMERIS_TYPE = 0
CLASSIFICATION_TYPE = U
NORAD_CAT_ID   = 20580
ELEMENT_SET_NO = 999
REV_AT_EPOCH   = 76230
BSTAR          = .25780886E-3
MEAN_MOTION_DOT = .7527E-4
MEAN_MOTION_DDOT = 0

CCSDS_OMM_VERS = 2.0
CREATION_DATE  = 
ORIGINATOR     = 

OBJECT_NAME    = SL-16 R/B
OBJECT_ID      = 1990-046B
CENTER_NAME    = EARTH
REF_FRAME      = TEME
TIME_SYSTEM    = UTC
MEAN_ELEMENT_THEORY = SGP/SGP4

EPOCH          = 2025-12-27T12:29:43.168128
MEAN_MOTION    = 14.14997400
ECCENTRICITY   = .00123673
INCLINATION    = 70.9992
RA_OF_ASC_NODE = 89.4812
ARG_OF_PERICENTER = 47.9632
MEAN_ANOMALY   = 312.2541

EPHEMERIS_TYPE = 0
CLASSIFICATION_TYPE = U
NORAD_CAT_ID   = 20625
ELEMENT_SET_NO = 999
REV_AT_EPOCH   = 83818
BSTAR          = .10328897E-4
MEAN_MOTION_DOT = -.28E-6
MEAN_MOTION_DDOT = 0

CCSDS_OMM_VERS = 2.0
CREATION_DATE  = 
ORIGINATOR     = 

OBJECT_NAME    = COSMOS 2084
OBJECT_ID      = 1990-055A
CENTER_NAME    = EARTH
REF_FRAME      = TEME
TIME_SYSTEM    = UTC
MEAN_ELEMENT_THEORY = SGP/SGP4

EPOCH          = 2025-12-27T21:58:42.653280
MEAN_MOTION    = 15.05109005
ECCENTRICITY   = .00292994
INCLINATION    = 62.7886
RA_OF_ASC_NODE = 220.2800
ARG_OF_PERICENTER = 176.7334
MEAN_ANOMALY   = 183.3963

EPHEMERIS_TYPE = 0
CLASSIFICATION_TYPE = U
NORAD_CAT_ID   = 20663
ELEMENT_SET_NO = 999
REV_AT_EPOCH   = 92551
BSTAR          = .23937085E-3
MEAN_MOTION_DOT = .3251E-4
MEAN_MOTION_DDOT = 0

CCSDS_OMM_VERS = 2.0
CREATION_DATE  = 
ORIGINATOR     = 

OBJECT_NAME    = SL-6 R/B(2)
OBJECT_ID      = 1990-055D
CENTER_NAME    = EARTH
REF_FRAME      = TEME
TIME_SYSTEM    = UTC
MEAN_ELEMENT_THEORY = SGP/SGP4

EPOCH          = 2025-12-27T17:39:37.960128
MEAN_MOTION    = 15.03147882
ECCENTRICITY   = .00145178
INCLINATION    = 62.7829
RA_OF_ASC_NODE = 138.4586
ARG_OF_PERICENTER = 318.9634
MEAN_ANOMALY   = 41.0371

EPHEMERIS_TYPE = 0
CLASSIFICATION_TYPE = U
NORAD_CAT_ID   = 20666
ELEMENT_SET_NO = 999
REV_AT_EPOCH   = 92737
BSTAR          = .24449101E-3
MEAN_MOTION_DOT = .3129E-4
MEAN_MOTION_DDOT = 0

CCSDS_OMM_VERS = 2.0
CREATION_DATE  = 
ORIGINATOR     = 

OBJECT_NAME    = SL-8 R/B
OBJECT_ID      = 1990-078B
CENTER_NAME    = EARTH
REF_FRAME      = TEME
TIME_SYSTEM    = UTC
MEAN_ELEMENT_THEORY = SGP/SGP4

EPOCH          = 2025-12-27T22:43:31.543104
MEAN_MOTION    = 14.86471737
ECCENTRICITY   = .03698283
INCLINATION    = 82.9056
RA_OF_ASC_NODE = 315.6930
ARG_OF_PERICENTER = 254.6819
MEAN_ANOMALY   = 101.3252

EPHEMERIS_TYPE = 0
CLASSIFICATION_TYPE = U
NORAD_CAT_ID   = 20775
ELEMENT_SET_NO = 999
REV_AT_EPOCH   = 79863
BSTAR          = .52675624E-3
MEAN_MOTION_DOT = .17089E-3
MEAN_MOTION_DDOT = 0

CCSDS_OMM_VERS = 2.0
CREATION_DATE  = 
ORIGINATOR     = 

OBJECT_NAME    = SL-8 R/B
OBJECT_ID      = 1991-006B
CENTER_NAME    = EARTH
REF_FRAME      = TEME
TIME_SYSTEM    = UTC
MEAN_ELEMENT_THEORY = SGP/SGP4

EPOCH          = 2025-12-27T13:39:42.042240
MEAN_MOTION    = 13.77492856
ECCENTRICITY   = .00213547
INCLINATION    = 82.9411
RA_OF_ASC_NODE = 223.6823
ARG_OF_PERICENTER = 235.7543
MEAN_ANOMALY   = 187.9676

EPHEMERIS_TYPE = 0
CLASSIFICATION_TYPE = U
NORAD_CAT_ID   = 21088
ELEMENT_SET_NO = 999
REV_AT_EPOCH   = 75414
BSTAR          = .80917882E-4
MEAN_MOTION_DOT = .96E-6
MEAN_MOTION_DDOT = 0

CCSDS_OMM_VERS = 2.0
CREATION_DATE  = 
ORIGINATOR     = 

OBJECT_NAME    = OKEAN-3
OBJECT_ID      = 1991-039A
CENTER_NAME    = EARTH
REF_FRAME      = TEME
TIME_SYSTEM    = UTC
MEAN_ELEMENT_THEORY = SGP/SGP4

EPOCH          = 2025-12-27T20:23:27.333024
MEAN_MOTION    = 15.04211420
ECCENTRICITY   = .00136575
INCLINATION    = 82.5162
RA_OF_ASC_NODE = 46.4206
ARG_OF_PERICENTER = 208.3119
MEAN_ANOMALY   = 151.7367

EPHEMERIS_TYPE = 0
CLASSIFICATION_TYPE = U
NORAD_CAT_ID   = 21397
ELEMENT_SET_NO = 999
REV_AT_EPOCH   = 85423
BSTAR          = .22950088E-3
MEAN_MOTION_DOT = .3221E-4
MEAN_MOTION_DDOT = 0

CCSDS_OMM_VERS = 2.0
CREATION_DATE  = 
ORIGINATOR     = 

OBJECT_NAME    = COSMOS 2151
OBJECT_ID      = 1991-042A
CENTER_NAME    = EARTH
REF_FRAME      = TEME
TIME_SYSTEM    = UTC
MEAN_ELEMENT_THEORY = SGP/SGP4

EPOCH          = 2025-12-27T21:39:21.829536
MEAN_MOTION    = 14.99748072
ECCENTRICITY   = .0011446
INCLINATION    = 82.4967
RA_OF_ASC_NODE = 152.8907
ARG_OF_PERICENTER = 305.8905
MEAN_ANOMALY   = 54.1255

EPHEMERIS_TYPE = 0
CLASSIFICATION_TYPE = U
NORAD_CAT_ID   = 21422
ELEMENT_SET_NO = 999
REV_AT_EPOCH   = 85243
BSTAR          = .26420057E-3
MEAN_MOTION_DOT = .3292E-4
MEAN_MOTION_DDOT = 0

