DELTA 2 R/B(1)          
1 20453U 90008B   25361.47599086  .00052182  00000+0  80230-3 0  9999
2 20453  35.6069 285.2884 0109215 311.9578  47.1890 15.46482649914916
COSMOS 2058             
1 20465U 90010A   25361.79514931  .00005759  00000+0  34652-3 0  9991
2 20465  82.4705 118.2227 0009713 216.8191 143.2373 15.10621677931389
SL-14 R/B               
1 20466U 90010B   25361.92190165  .00000649  00000+0  75779-4 0  9995
2 20466  82.5024 334.7874 0019954 171.7964 188.3581 14.83486316917847
SL-14 R/B               
1 20511U 90018B   25361.87064542  .00000628  00000+0  76026-4 0  9990
2 20511  82.5220 290.2232 0015698 333.5297  26.5113 14.82062909911944
HST                     
1 20580U 90037B   25361.81274159  .00007527  00000+0  25781-3 0  9994
2 20580  28.4655 169.8780 0002567  48.3143 311.7671 15.28239064762303
SL-16 R/B               
1 20625U 90046B   25361.52063852 -.00000028  00000+0  10329-4 0  9991
2 20625  70.9992  89.4812 0012367  47.9632 312.2541 14.14997400838180
COSMOS 2084             
1 20663U 90055A   25361.91577145  .00003251  00000+0  23937-3 0  9999
2 20663  62.7886 220.2800 0029299 176.7334 183.3963 15.05109005925513
SL-6 R/B(2)             
1 20666U 90055D   25361.73585602  .00003129  00000+0  24449-3 0  9992
2 20666  62.7829 138.4586 0014517 318.9634  41.0371 15.03147882927376
SL-8 R/B                
1 20775U 90078B   25361.94689286  .00017089  00000+0  52676-3 0  9997
2 20775  82.9056 315.6930 0369828 254.6819 101.3252 14.86471737798636
SL-8 R/B                
1 21088U 91006B   25361.56923660  .00000096  00000+0  80918-4 0  9993
2 21088  82.9411 223.6823 0021354 235.7543 187.9676 13.77492856754143
OKEAN-3                 
1 21397U 91039A   25361.84962191  .00003221  00000+0  22950-3 0  9999
2 21397  82.5162  46.4206 0013657 208.3119 151.7367 15.04211420854238
COSMOS 2151             
1 21422U 91042A   25361.90233599  .00003292  00000+0  26420-3 0  9996
2 21422  82.4967 152.8907 0011446 305.8905  54.1255 14.99748072852432
